CCSDS_OMM_VERS = 2.0
CREATION_DATE  = 
ORIGINATOR     = 

OBJECT_NAME    = KUIPER-00144
OBJECT_ID      = 2025-301A
CENTER_NAME    = EARTH
REF_FRAME      = TEME
TIME_SYSTEM    = UTC
MEAN_ELEMENT_THEORY = SGP/SGP4

EPOCH          = 2026-01-03T13:46:23.899872
MEAN_MOTION    = 15.35817413
ECCENTRICITY   = .00064574
INCLINATION    = 51.8708
RA_OF_ASC_NODE = 19.8370
ARG_OF_PERICENTER = 145.2927
MEAN_ANOMALY   = 214.8482

EPHEMERIS_TYPE = 0
CLASSIFICATION_TYPE = U
NORAD_CAT_ID   = 67133
ELEMENT_SET_NO = 999
REV_AT_EPOCH   = 372
BSTAR          = .10860683E-2
MEAN_MOTION_DOT = .38262E-3
MEAN_MOTION_DDOT = 0

CCSDS_OMM_VERS = 2.0
CREATION_DATE  = 
ORIGINATOR     = 

OBJECT_NAME    = KUIPER-00164
OBJECT_ID      = 2025-301B
CENTER_NAME    = EARTH
REF_FRAME      = TEME
TIME_SYSTEM    = UTC
MEAN_ELEMENT_THEORY = SGP/SGP4

EPOCH          = 2026-01-03T12:00:50.697792
MEAN_MOTION    = 15.36444130
ECCENTRICITY   = .00031192
INCLINATION    = 51.8731
RA_OF_ASC_NODE = 20.0982
ARG_OF_PERICENTER = 124.3396
MEAN_ANOMALY   = 235.7885

EPHEMERIS_TYPE = 0
CLASSIFICATION_TYPE = U
NORAD_CAT_ID   = 67134
ELEMENT_SET_NO = 999
REV_AT_EPOCH   = 389
BSTAR          = .13043997E-2
MEAN_MOTION_DOT = .47007E-3
MEAN_MOTION_DDOT = 0

CCSDS_OMM_VERS = 2.0
CREATION_DATE  = 
ORIGINATOR     = 

OBJECT_NAME    = KUIPER-00175
OBJECT_ID      = 2025-301C
CENTER_NAME    = EARTH
REF_FRAME      = TEME
TIME_SYSTEM    = UTC
MEAN_ELEMENT_THEORY = SGP/SGP4

EPOCH          = 2026-01-03T11:52:32.060928
MEAN_MOTION    = 15.36965885
ECCENTRICITY   = .00028378
INCLINATION    = 51.8746
RA_OF_ASC_NODE = 20.0558
ARG_OF_PERICENTER = 78.6705
MEAN_ANOMALY   = 281.4601

EPHEMERIS_TYPE = 0
CLASSIFICATION_TYPE = U
NORAD_CAT_ID   = 67135
ELEMENT_SET_NO = 999
REV_AT_EPOCH   = 378
BSTAR          = .14221792E-2
MEAN_MOTION_DOT = .52196E-3
MEAN_MOTION_DDOT = 0

CCSDS_OMM_VERS = 2.0
CREATION_DATE  = 
ORIGINATOR     = 

OBJECT_NAME    = KUIPER-00179
OBJECT_ID      = 2025-301D
CENTER_NAME    = EARTH
REF_FRAME      = TEME
TIME_SYSTEM    = UTC
MEAN_ELEMENT_THEORY = SGP/SGP4

EPOCH          = 2026-01-03T13:31:58.844928
MEAN_MOTION    = 15.36544506
ECCENTRICITY   = .00032351
INCLINATION    = 51.8746
RA_OF_ASC_NODE = 19.7702
ARG_OF_PERICENTER = 107.0693
MEAN_ANOMALY   = 253.0648

EPHEMERIS_TYPE = 0
CLASSIFICATION_TYPE = U
NORAD_CAT_ID   = 67136
ELEMENT_SET_NO = 999
REV_AT_EPOCH   = 390
BSTAR          = .90141215E-3
MEAN_MOTION_DOT = .32407E-3
MEAN_MOTION_DDOT = 0

CCSDS_OMM_VERS = 2.0
CREATION_DATE  = 
ORIGINATOR     = 

OBJECT_NAME    = KUIPER-00181
OBJECT_ID      = 2025-301E
CENTER_NAME    = EARTH
REF_FRAME      = TEME
TIME_SYSTEM    = UTC
MEAN_ELEMENT_THEORY = SGP/SGP4

EPOCH          = 2026-01-03T12:30:36.712800
MEAN_MOTION    = 15.34751988
ECCENTRICITY   = .00105424
INCLINATION    = 51.8642
RA_OF_ASC_NODE = 20.2267
ARG_OF_PERICENTER = 170.1341
MEAN_ANOMALY   = 189.9853

EPHEMERIS_TYPE = 0
CLASSIFICATION_TYPE = U
NORAD_CAT_ID   = 67137
ELEMENT_SET_NO = 999
REV_AT_EPOCH   = 387
BSTAR          = .11665441E-2
MEAN_MOTION_DOT = .39791E-3
MEAN_MOTION_DDOT = 0

CCSDS_OMM_VERS = 2.0
CREATION_DATE  = 
ORIGINATOR     = 

OBJECT_NAME    = KUIPER-00183
OBJECT_ID      = 2025-301F
CENTER_NAME    = EARTH
REF_FRAME      = TEME
TIME_SYSTEM    = UTC
MEAN_ELEMENT_THEORY = SGP/SGP4

EPOCH          = 2026-01-03T12:35:53.157984
MEAN_MOTION    = 15.34481676
ECCENTRICITY   = .00112585
INCLINATION    = 51.8615
RA_OF_ASC_NODE = 20.2469
ARG_OF_PERICENTER = 171.6018
MEAN_ANOMALY   = 188.5158

EPHEMERIS_TYPE = 0
CLASSIFICATION_TYPE = U
NORAD_CAT_ID   = 67138
ELEMENT_SET_NO = 999
REV_AT_EPOCH   = 388
BSTAR          = .43059335E-3
MEAN_MOTION_DOT = .14272E-3
MEAN_MOTION_DDOT = 0

CCSDS_OMM_VERS = 2.0
CREATION_DATE  = 
ORIGINATOR     = 

OBJECT_NAME    = KUIPER-00184
OBJECT_ID      = 2025-301G
CENTER_NAME    = EARTH
REF_FRAME      = TEME
TIME_SYSTEM    = UTC
MEAN_ELEMENT_THEORY = SGP/SGP4

EPOCH          = 2026-01-03T14:03:04.340160
MEAN_MOTION    = 15.34804713
ECCENTRICITY   = .00090297
INCLINATION    = 51.8631
RA_OF_ASC_NODE = 19.9059
ARG_OF_PERICENTER = 167.0016
MEAN_ANOMALY   = 193.1204

EPHEMERIS_TYPE = 0
CLASSIFICATION_TYPE = U
NORAD_CAT_ID   = 67139
ELEMENT_SET_NO = 999
REV_AT_EPOCH   = 400
BSTAR          = .26684681E-3
MEAN_MOTION_DOT = .8779E-4
MEAN_MOTION_DDOT = 0

CCSDS_OMM_VERS = 2.0
CREATION_DATE  = 
ORIGINATOR     = 

OBJECT_NAME    = KUIPER-00186
OBJECT_ID      = 2025-301H
CENTER_NAME    = EARTH
REF_FRAME      = TEME
TIME_SYSTEM    = UTC
MEAN_ELEMENT_THEORY = SGP/SGP4

EPOCH          = 2026-01-03T13:53:06.999072
MEAN_MOTION    = 15.35494557
ECCENTRICITY   = .00079333
INCLINATION    = 51.8689
RA_OF_ASC_NODE = 19.8658
ARG_OF_PERICENTER = 155.2022
MEAN_ANOMALY   = 204.9347

EPHEMERIS_TYPE = 0
CLASSIFICATION_TYPE = U
NORAD_CAT_ID   = 67140
ELEMENT_SET_NO = 999
REV_AT_EPOCH   = 372
BSTAR          = .12571201E-2
MEAN_MOTION_DOT = .43938E-3
MEAN_MOTION_DDOT = 0

CCSDS_OMM_VERS = 2.0
CREATION_DATE  = 
ORIGINATOR     = 

OBJECT_NAME    = KUIPER-00187
OBJECT_ID      = 2025-301J
CENTER_NAME    = EARTH
REF_FRAME      = TEME
TIME_SYSTEM    = UTC
MEAN_ELEMENT_THEORY = SGP/SGP4

EPOCH          = 2026-01-03T13:39:42.603840
MEAN_MOTION    = 15.36151136
ECCENTRICITY   = .00050673
INCLINATION    = 51.8720
RA_OF_ASC_NODE = 19.8073
ARG_OF_PERICENTER = 138.0999
MEAN_ANOMALY   = 222.0375

EPHEMERIS_TYPE = 0
CLASSIFICATION_TYPE = U
NORAD_CAT_ID   = 67141
ELEMENT_SET_NO = 999
REV_AT_EPOCH   = 372
BSTAR          = .15123375E-2
MEAN_MOTION_DOT = .54111E-3
MEAN_MOTION_DDOT = 0

CCSDS_OMM_VERS = 2.0
CREATION_DATE  = 
ORIGINATOR     = 

OBJECT_NAME    = KUIPER-00188
OBJECT_ID      = 2025-301K
CENTER_NAME    = EARTH
REF_FRAME      = TEME
TIME_SYSTEM    = UTC
MEAN_ELEMENT_THEORY = SGP/SGP4

EPOCH          = 2026-01-03T13:54:41.625216
MEAN_MOTION    = 15.35375273
ECCENTRICITY   = .00078682
INCLINATION    = 51.8700
RA_OF_ASC_NODE = 19.8739
ARG_OF_PERICENTER = 162.6551
MEAN_ANOMALY   = 197.4705

EPHEMERIS_TYPE = 0
CLASSIFICATION_TYPE = U
NORAD_CAT_ID   = 67142
ELEMENT_SET_NO = 999
REV_AT_EPOCH   = 372
BSTAR          = .11661839E-2
MEAN_MOTION_DOT = .40556E-3
MEAN_MOTION_DDOT = 0

CCSDS_OMM_VERS = 2.0
CREATION_DATE  = 
ORIGINATOR     = 

OBJECT_NAME    = KUIPER-00191
OBJECT_ID      = 2025-301L
CENTER_NAME    = EARTH
REF_FRAME      = TEME
TIME_SYSTEM    = UTC
MEAN_ELEMENT_THEORY = SGP/SGP4

EPOCH          = 2026-01-03T13:51:10.803168
MEAN_MOTION    = 15.35540582
ECCENTRICITY   = .00069148
INCLINATION    = 51.8679
RA_OF_ASC_NODE = 19.8570
ARG_OF_PERICENTER = 157.1543
MEAN_ANOMALY   = 202.9752

EPHEMERIS_TYPE = 0
CLASSIFICATION_TYPE = U
NORAD_CAT_ID   = 67143
ELEMENT_SET_NO = 999
REV_AT_EPOCH   = 375
BSTAR          = .1100123E-2
MEAN_MOTION_DOT = .38422E-3
MEAN_MOTION_DDOT = 0

CCSDS_OMM_VERS = 2.0
CREATION_DATE  = 
ORIGINATOR     = 

OBJECT_NAME    = KUIPER-00196
OBJECT_ID      = 2025-301M
CENTER_NAME    = EARTH
REF_FRAME      = TEME
TIME_SYSTEM    = UTC
MEAN_ELEMENT_THEORY = SGP/SGP4

EPOCH          = 2026-01-03T13:36:32.936832
MEAN_MOTION    = 15.36330257
ECCENTRICITY   = .00039685
INCLINATION    = 51.8738
RA_OF_ASC_NODE = 19.7921
ARG_OF_PERICENTER = 117.0044
MEAN_ANOMALY   = 243.1348

EPHEMERIS_TYPE = 0
CLASSIFICATION_TYPE = U
NORAD_CAT_ID   = 67144
ELEMENT_SET_NO = 999
REV_AT_EPOCH   = 372
BSTAR          = .12905625E-2
MEAN_MOTION_DOT = .46333E-3
MEAN_MOTION_DDOT = 0

